[{"OBJECT_NAME":"ONEWEB-0060","OBJECT_ID":"2020-020AH","EPOCH":"2026-03-20T06:53:36.795552","MEAN_MOTION":13.11412942,"ECCENTRICITY":0.00018639,"INCLINATION":87.8883,"RA_OF_ASC_NODE":38.7384,"ARG_OF_PERICENTER":114.3062,"MEAN_ANOMALY":245.826,"EPHEMERIS_TYPE":0,"CLASSIFICATION_TYPE":"U","NORAD_CAT_ID":45455,"ELEMENT_SET_NO":999,"REV_AT_EPOCH":29089,"BSTAR":-0.0016960713,"MEAN_MOTION_DOT":-5.88e-6,"MEAN_MOTION_DDOT":0},{"OBJECT_NAME":"ONEWEB-0086","OBJECT_ID":"2020-020AJ","EPOCH":"2026-03-20T06:23:07.597824","MEAN_MOTION":13.11415003,"ECCENTRICITY":0.00023168,"INCLINATION":87.8889,"RA_OF_ASC_NODE":38.7315,"ARG_OF_PERICENTER":97.7536,"MEAN_ANOMALY":262.3855,"EPHEMERIS_TYPE":0,"CLASSIFICATION_TYPE":"U","NORAD_CAT_ID":45456,"ELEMENT_SET_NO":999,"REV_AT_EPOCH":29095,"BSTAR":0.00096683588,"MEAN_MOTION_DOT":3.55e-6,"MEAN_MOTION_DDOT":0},{"OBJECT_NAME":"ONEWEB-0088","OBJECT_ID":"2020-020AK","EPOCH":"2026-03-19T22:31:53.406912","MEAN_MOTION":13.11420973,"ECCENTRICITY":0.0001716,"INCLINATION":87.8898,"RA_OF_ASC_NODE":38.761,"ARG_OF_PERICENTER":77.447,"MEAN_ANOMALY":282.6849,"EPHEMERIS_TYPE":0,"CLASSIFICATION_TYPE":"U","NORAD_CAT_ID":45457,"ELEMENT_SET_NO":999,"REV_AT_EPOCH":29084,"BSTAR":-0.00049938,"MEAN_MOTION_DOT":-1.64e-6,"MEAN_MOTION_DDOT":0},{"OBJECT_NAME":"ONEWEB-0102","OBJECT_ID":"2020-100A","EPOCH":"2026-03-20T05:47:39.857856","MEAN_MOTION":13.12444637,"ECCENTRICITY":0.00019551,"INCLINATION":87.9005,"RA_OF_ASC_NODE":8.3372,"ARG_OF_PERICENTER":84.2029,"MEAN_ANOMALY":275.9322,"EPHEMERIS_TYPE":0,"CLASSIFICATION_TYPE":"U","NORAD_CAT_ID":47258,"ELEMENT_SET_NO":999,"REV_AT_EPOCH":25306,"BSTAR":0.00098032942,"MEAN_MOTION_DOT":3.65e-6,"MEAN_MOTION_DDOT":0},{"OBJECT_NAME":"ONEWEB-0109","OBJECT_ID":"2020-100B","EPOCH":"2026-03-20T05:59:52.414944","MEAN_MOTION":13.12443443,"ECCENTRICITY":0.00019465,"INCLINATION":87.9016,"RA_OF_ASC_NODE":8.3109,"ARG_OF_PERICENTER":77.2632,"MEAN_ANOMALY":282.8714,"EPHEMERIS_TYPE":0,"CLASSIFICATION_TYPE":"U","NORAD_CAT_ID":47259,"ELEMENT_SET_NO":999,"REV_AT_EPOCH":25289,"BSTAR":0.0013363849,"MEAN_MOTION_DOT":4.94e-6,"MEAN_MOTION_DDOT":0},{"OBJECT_NAME":"ONEWEB-0110","OBJECT_ID":"2020-100C","EPOCH":"2026-03-20T06:38:52.316160","MEAN_MOTION":13.12440611,"ECCENTRICITY":0.00019211,"INCLINATION":87.9015,"RA_OF_ASC_NODE":8.29,"ARG_OF_PERICENTER":86.4201,"MEAN_ANOMALY":273.7147,"EPHEMERIS_TYPE":0,"CLASSIFICATION_TYPE":"U","NORAD_CAT_ID":47260,"ELEMENT_SET_NO":999,"REV_AT_EPOCH":25306,"BSTAR":-0.00060487106,"MEAN_MOTION_DOT":-2.05e-6,"MEAN_MOTION_DDOT":0},{"OBJECT_NAME":"ONEWEB-0111","OBJECT_ID":"2020-100D","EPOCH":"2026-03-20T05:33:01.406592","MEAN_MOTION":13.12444803,"ECCENTRICITY":0.00017486,"INCLINATION":87.9017,"RA_OF_ASC_NODE":8.3176,"ARG_OF_PERICENTER":81.8636,"MEAN_ANOMALY":278.269,"EPHEMERIS_TYPE":0,"CLASSIFICATION_TYPE":"U","NORAD_CAT_ID":47261,"ELEMENT_SET_NO":999,"REV_AT_EPOCH":25289,"BSTAR":0.00019879999,"MEAN_MOTION_DOT":8.4e-7,"MEAN_MOTION_DDOT":0},{"OBJECT_NAME":"ONEWEB-0114","OBJECT_ID":"2020-100E","EPOCH":"2026-03-20T06:16:56.465760","MEAN_MOTION":13.12442568,"ECCENTRICITY":0.00019331,"INCLINATION":87.9017,"RA_OF_ASC_NODE":8.3074,"ARG_OF_PERICENTER":70.5492,"MEAN_ANOMALY":289.5845,"EPHEMERIS_TYPE":0,"CLASSIFICATION_TYPE":"U","NORAD_CAT_ID":47262,"ELEMENT_SET_NO":999,"REV_AT_EPOCH":25285,"BSTAR":0.00079028829,"MEAN_MOTION_DOT":2.97e-6,"MEAN_MOTION_DDOT":0},{"OBJECT_NAME":"ONEWEB-0117","OBJECT_ID":"2020-100F","EPOCH":"2026-03-20T06:04:44.395968","MEAN_MOTION":13.12443098,"ECCENTRICITY":0.00018548,"INCLINATION":87.9014,"RA_OF_ASC_NODE":8.3031,"ARG_OF_PERICENTER":79.4106,"MEAN_ANOMALY":280.7231,"EPHEMERIS_TYPE":0,"CLASSIFICATION_TYPE":"U","NORAD_CAT_ID":47263,"ELEMENT_SET_NO":999,"REV_AT_EPOCH":25286,"BSTAR":0.0011234949,"MEAN_MOTION_DOT":4.17e-6,"MEAN_MOTION_DDOT":0},{"OBJECT_NAME":"ONEWEB-0118","OBJECT_ID":"2020-100G","EPOCH":"2026-03-20T05:03:44.571456","MEAN_MOTION":13.12442983,"ECCENTRICITY":0.00017902,"INCLINATION":87.9017,"RA_OF_ASC_NODE":8.3136,"ARG_OF_PERICENTER":67.889,"MEAN_ANOMALY":292.2429,"EPHEMERIS_TYPE":0,"CLASSIFICATION_TYPE":"U","NORAD_CAT_ID":47264,"ELEMENT_SET_NO":999,"REV_AT_EPOCH":25305,"BSTAR":-0.00098302919,"MEAN_MOTION_DOT":-3.41e-6,"MEAN_MOTION_DDOT":0},{"OBJECT_NAME":"ONEWEB-0119","OBJECT_ID":"2020-100H","EPOCH":"2026-03-20T05:40:20.875872","MEAN_MOTION":13.12444534,"ECCENTRICITY":0.00018285,"INCLINATION":87.9005,"RA_OF_ASC_NODE":8.3334,"ARG_OF_PERICENTER":77.9097,"MEAN_ANOMALY":282.2237,"EPHEMERIS_TYPE":0,"CLASSIFICATION_TYPE":"U","NORAD_CAT_ID":47265,"ELEMENT_SET_NO":999,"REV_AT_EPOCH":25303,"BSTAR":0.00059688892,"MEAN_MOTION_DOT":2.27e-6,"MEAN_MOTION_DDOT":0},{"OBJECT_NAME":"ONEWEB-0120","OBJECT_ID":"2020-100J","EPOCH":"2026-03-20T06:14:41.952192","MEAN_MOTION":13.12442352,"ECCENTRICITY":0.00018986,"INCLINATION":87.9006,"RA_OF_ASC_NODE":8.3296,"ARG_OF_PERICENTER":76.2619,"MEAN_ANOMALY":283.8721,"EPHEMERIS_TYPE":0,"CLASSIFICATION_TYPE":"U","NORAD_CAT_ID":47266,"ELEMENT_SET_NO":999,"REV_AT_EPOCH":25306,"BSTAR":0.00095960137,"MEAN_MOTION_DOT":3.58e-6,"MEAN_MOTION_DDOT":0},{"OBJECT_NAME":"ONEWEB-0121","OBJECT_ID":"2020-100K","EPOCH":"2026-03-20T05:57:25.426944","MEAN_MOTION":13.12443865,"ECCENTRICITY":0.00018051,"INCLINATION":87.9016,"RA_OF_ASC_NODE":8.3092,"ARG_OF_PERICENTER":84.8094,"MEAN_ANOMALY":275.3241,"EPHEMERIS_TYPE":0,"CLASSIFICATION_TYPE":"U","NORAD_CAT_ID":47267,"ELEMENT_SET_NO":999,"REV_AT_EPOCH":25297,"BSTAR":0.0012942651,"MEAN_MOTION_DOT":4.78e-6,"MEAN_MOTION_DDOT":0},{"OBJECT_NAME":"ONEWEB-0122","OBJECT_ID":"2020-100L","EPOCH":"2026-03-20T05:48:52.743168","MEAN_MOTION":13.12443124,"ECCENTRICITY":0.00019685,"INCLINATION":87.9017,"RA_OF_ASC_NODE":8.3129,"ARG_OF_PERICENTER":79.3024,"MEAN_ANOMALY":280.8326,"EPHEMERIS_TYPE":0,"CLASSIFICATION_TYPE":"U","NORAD_CAT_ID":47268,"ELEMENT_SET_NO":999,"REV_AT_EPOCH":25288,"BSTAR":0.00098674092,"MEAN_MOTION_DOT":3.68e-6,"MEAN_MOTION_DDOT":0},{"OBJECT_NAME":"ONEWEB-0123","OBJECT_ID":"2020-100M","EPOCH":"2026-03-20T05:42:46.999872","MEAN_MOTION":13.12444844,"ECCENTRICITY":0.00017757,"INCLINATION":87.9006,"RA_OF_ASC_NODE":8.3319,"ARG_OF_PERICENTER":75.7287,"MEAN_ANOMALY":284.4039,"EPHEMERIS_TYPE":0,"CLASSIFICATION_TYPE":"U","NORAD_CAT_ID":47269,"ELEMENT_SET_NO":999,"REV_AT_EPOCH":25302,"BSTAR":0.00096662345,"MEAN_MOTION_DOT":3.6e-6,"MEAN_MOTION_DDOT":0},{"OBJECT_NAME":"ONEWEB-0124","OBJECT_ID":"2020-100N","EPOCH":"2026-03-20T05:28:08.496768","MEAN_MOTION":13.1244435,"ECCENTRICITY":0.00017247,"INCLINATION":87.9007,"RA_OF_ASC_NODE":8.3382,"ARG_OF_PERICENTER":81.2723,"MEAN_ANOMALY":278.8601,"EPHEMERIS_TYPE":0,"CLASSIFICATION_TYPE":"U","NORAD_CAT_ID":47270,"ELEMENT_SET_NO":999,"REV_AT_EPOCH":25290,"BSTAR":-0.00026968489,"MEAN_MOTION_DOT":-8.4e-7,"MEAN_MOTION_DDOT":0},{"OBJECT_NAME":"ONEWEB-0125","OBJECT_ID":"2020-100P","EPOCH":"2026-03-20T06:46:11.314560","MEAN_MOTION":13.12440635,"ECCENTRICITY":0.00014829,"INCLINATION":87.9017,"RA_OF_ASC_NODE":8.3002,"ARG_OF_PERICENTER":78.3075,"MEAN_ANOMALY":281.822,"EPHEMERIS_TYPE":0,"CLASSIFICATION_TYPE":"U","NORAD_CAT_ID":47271,"ELEMENT_SET_NO":999,"REV_AT_EPOCH":25297,"BSTAR":-0.00093722384,"MEAN_MOTION_DOT":-3.24e-6,"MEAN_MOTION_DDOT":0},{"OBJECT_NAME":"ONEWEB-0126","OBJECT_ID":"2020-100Q","EPOCH":"2026-03-19T20:16:59.727072","MEAN_MOTION":13.12443931,"ECCENTRICITY":0.0001914,"INCLINATION":87.9007,"RA_OF_ASC_NODE":8.4088,"ARG_OF_PERICENTER":75.5179,"MEAN_ANOMALY":284.6162,"EPHEMERIS_TYPE":0,"CLASSIFICATION_TYPE":"U","NORAD_CAT_ID":47272,"ELEMENT_SET_NO":999,"REV_AT_EPOCH":25298,"BSTAR":-0.00038018927,"MEAN_MOTION_DOT":-1.24e-6,"MEAN_MOTION_DDOT":0},{"OBJECT_NAME":"ONEWEB-0127","OBJECT_ID":"2020-100R","EPOCH":"2026-03-20T06:26:42.374400","MEAN_MOTION":13.12441581,"ECCENTRICITY":0.00019442,"INCLINATION":87.9002,"RA_OF_ASC_NODE":8.3283,"ARG_OF_PERICENTER":76.8667,"MEAN_ANOMALY":283.2678,"EPHEMERIS_TYPE":0,"CLASSIFICATION_TYPE":"U","NORAD_CAT_ID":47273,"ELEMENT_SET_NO":999,"REV_AT_EPOCH":25306,"BSTAR":0.00024493706,"MEAN_MOTION_DOT":1.01e-6,"MEAN_MOTION_DDOT":0},{"OBJECT_NAME":"ONEWEB-0128","OBJECT_ID":"2020-100S","EPOCH":"2026-03-20T06:58:24.030624","MEAN_MOTION":13.12444097,"ECCENTRICITY":0.00019483,"INCLINATION":87.9003,"RA_OF_ASC_NODE":8.3375,"ARG_OF_PERICENTER":88.6972,"MEAN_ANOMALY":271.438,"EPHEMERIS_TYPE":0,"CLASSIFICATION_TYPE":"U","NORAD_CAT_ID":47274,"ELEMENT_SET_NO":999,"REV_AT_EPOCH":25308,"BSTAR":-0.0010645913,"MEAN_MOTION_DOT":-3.7e-6,"MEAN_MOTION_DDOT":0},{"OBJECT_NAME":"ONEWEB-0129","OBJECT_ID":"2020-100T","EPOCH":"2026-03-20T06:29:08.563200","MEAN_MOTION":13.12441863,"ECCENTRICITY":0.0002826,"INCLINATION":87.9013,"RA_OF_ASC_NODE":8.3064,"ARG_OF_PERICENTER":64.296,"MEAN_ANOMALY":295.846,"EPHEMERIS_TYPE":0,"CLASSIFICATION_TYPE":"U","NORAD_CAT_ID":47275,"ELEMENT_SET_NO":999,"REV_AT_EPOCH":25301,"BSTAR":-4.5884415e-5,"MEAN_MOTION_DOT":-4.0e-8,"MEAN_MOTION_DDOT":0},{"OBJECT_NAME":"ONEWEB-0130","OBJECT_ID":"2020-100U","EPOCH":"2026-03-20T05:18:22.960512","MEAN_MOTION":13.12444058,"ECCENTRICITY":0.00019838,"INCLINATION":87.9021,"RA_OF_ASC_NODE":8.31,"ARG_OF_PERICENTER":79.048,"MEAN_ANOMALY":281.0871,"EPHEMERIS_TYPE":0,"CLASSIFICATION_TYPE":"U","NORAD_CAT_ID":47276,"ELEMENT_SET_NO":999,"REV_AT_EPOCH":25297,"BSTAR":-0.00067771377,"MEAN_MOTION_DOT":-2.31e-6,"MEAN_MOTION_DDOT":0},{"OBJECT_NAME":"ONEWEB-0131","OBJECT_ID":"2020-100V","EPOCH":"2026-03-20T05:13:29.842464","MEAN_MOTION":13.12443987,"ECCENTRICITY":0.00018694,"INCLINATION":87.9006,"RA_OF_ASC_NODE":8.3388,"ARG_OF_PERICENTER":79.2558,"MEAN_ANOMALY":280.8781,"EPHEMERIS_TYPE":0,"CLASSIFICATION_TYPE":"U","NORAD_CAT_ID":47277,"ELEMENT_SET_NO":999,"REV_AT_EPOCH":25301,"BSTAR":-0.0008816047,"MEAN_MOTION_DOT":-3.04e-6,"MEAN_MOTION_DDOT":0}]
